STARLINK-2549
1 48314U 21036AQ  26061.16668981  .01548925  00000+0  71861-1 0  9999
2 48314  53.0953 125.2148 0000747  47.1259 330.0712 15.16262396  5671
